{
  "links" : {
    "next" : "https://api.nasa.gov/neo/rest/v1/feed?start_date=2004-03-23&end_date=2004-03-23&detailed=true&api_key=t0TVs3DtDT2H8Oy2Zy8m2eVrNsAVKAexjcZXUckd",
    "prev" : "https://api.nasa.gov/neo/rest/v1/feed?start_date=2004-03-21&end_date=2004-03-21&detailed=true&api_key=t0TVs3DtDT2H8Oy2Zy8m2eVrNsAVKAexjcZXUckd",
    "self" : "https://api.nasa.gov/neo/rest/v1/feed?start_date=2004-03-22&end_date=2004-03-22&detailed=true&api_key=t0TVs3DtDT2H8Oy2Zy8m2eVrNsAVKAexjcZXUckd"
  },
  "element_count" : 9,
  "near_earth_objects" : {
    "2004-03-22" : [ {
      "links" : {
        "self" : "https://api.nasa.gov/neo/rest/v1/neo/3378868?api_key=t0TVs3DtDT2H8Oy2Zy8m2eVrNsAVKAexjcZXUckd"
      },
      "neo_reference_id" : "3378868",
      "name" : "(2007 ML13)",
      "nasa_jpl_url" : "http://ssd.jpl.nasa.gov/sbdb.cgi?sstr=3378868",
      "absolute_magnitude_h" : 20.1,
      "estimated_diameter" : {
        "kilometers" : {
          "estimated_diameter_min" : 0.2538370294,
          "estimated_diameter_max" : 0.5675968529
        },
        "meters" : {
          "estimated_diameter_min" : 253.8370293645,
          "estimated_diameter_max" : 567.5968528656
        },
        "miles" : {
          "estimated_diameter_min" : 0.1577269688,
          "estimated_diameter_max" : 0.3526882241
        },
        "feet" : {
          "estimated_diameter_min" : 832.7986794202,
          "estimated_diameter_max" : 1862.1944587557
        }
      },
      "is_potentially_hazardous_asteroid" : false,
      "close_approach_data" : [ {
        "close_approach_date" : "2004-03-22",
        "epoch_date_close_approach" : 1079942400000,
        "relative_velocity" : {
          "kilometers_per_second" : "8.0375986847",
          "kilometers_per_hour" : "28935.3552649824",
          "miles_per_hour" : "17979.3044978442"
        },
        "miss_distance" : {
          "astronomical" : "0.3981034505",
          "lunar" : "154.8622436523",
          "kilometers" : "59555428",
          "miles" : "37006028"
        },
        "orbiting_body" : "Earth"
      } ],
      "orbital_data" : {
        "orbit_id" : "46",
        "orbit_determination_date" : "2017-04-06 09:06:18",
        "orbit_uncertainty" : "0",
        "minimum_orbit_intersection" : ".192687",
        "jupiter_tisserand_invariant" : "4.957",
        "epoch_osculation" : "2458000.5",
        "eccentricity" : ".08468862473110257",
        "semi_major_axis" : "1.297246032612587",
        "inclination" : "18.01199757409271",
        "ascending_node_longitude" : "135.5318979517024",
        "orbital_period" : "539.6745693137747",
        "perihelion_distance" : "1.187384050172748",
        "perihelion_argument" : "139.2775323957567",
        "aphelion_distance" : "1.407108015052426",
        "perihelion_time" : "2458063.747247683695",
        "mean_anomaly" : "317.8097422765682",
        "mean_motion" : ".667068675216176",
        "equinox" : "J2000"
      }
    }, {
      "links" : {
        "self" : "https://api.nasa.gov/neo/rest/v1/neo/3760542?api_key=t0TVs3DtDT2H8Oy2Zy8m2eVrNsAVKAexjcZXUckd"
      },
      "neo_reference_id" : "3760542",
      "name" : "(2016 TC18)",
      "nasa_jpl_url" : "http://ssd.jpl.nasa.gov/sbdb.cgi?sstr=3760542",
      "absolute_magnitude_h" : 23.6,
      "estimated_diameter" : {
        "kilometers" : {
          "estimated_diameter_min" : 0.0506471459,
          "estimated_diameter_max" : 0.1132504611
        },
        "meters" : {
          "estimated_diameter_min" : 50.6471458835,
          "estimated_diameter_max" : 113.2504610618
        },
        "miles" : {
          "estimated_diameter_min" : 0.0314706677,
          "estimated_diameter_max" : 0.0703705522
        },
        "feet" : {
          "estimated_diameter_min" : 166.1651821003,
          "estimated_diameter_max" : 371.5566426699
        }
      },
      "is_potentially_hazardous_asteroid" : false,
      "close_approach_data" : [ {
        "close_approach_date" : "2004-03-22",
        "epoch_date_close_approach" : 1079942400000,
        "relative_velocity" : {
          "kilometers_per_second" : "6.5827846266",
          "kilometers_per_hour" : "23698.0246555931",
          "miles_per_hour" : "14725.0309311378"
        },
        "miss_distance" : {
          "astronomical" : "0.3836086325",
          "lunar" : "149.2237548828",
          "kilometers" : "57387036",
          "miles" : "35658652"
        },
        "orbiting_body" : "Earth"
      } ],
      "orbital_data" : {
        "orbit_id" : "8",
        "orbit_determination_date" : "2017-04-06 08:23:13",
        "orbit_uncertainty" : "6",
        "minimum_orbit_intersection" : ".0738227",
        "jupiter_tisserand_invariant" : "5.014",
        "epoch_osculation" : "2458000.5",
        "eccentricity" : ".1874017174319511",
        "semi_major_axis" : "1.285631386076835",
        "inclination" : "8.296362196498899",
        "ascending_node_longitude" : "32.39841198699766",
        "orbital_period" : "532.4430055903965",
        "perihelion_distance" : "1.044701856341617",
        "perihelion_argument" : "34.90480969251435",
        "aphelion_distance" : "1.526560915812054",
        "perihelion_time" : "2458261.616460440941",
        "mean_anomaly" : "183.4516656773334",
        "mean_motion" : ".6761287052701838",
        "equinox" : "J2000"
      }
    }, {
      "links" : {
        "self" : "https://api.nasa.gov/neo/rest/v1/neo/3771800?api_key=t0TVs3DtDT2H8Oy2Zy8m2eVrNsAVKAexjcZXUckd"
      },
      "neo_reference_id" : "3771800",
      "name" : "(2017 FQ63)",
      "nasa_jpl_url" : "http://ssd.jpl.nasa.gov/sbdb.cgi?sstr=3771800",
      "absolute_magnitude_h" : 25.102,
      "estimated_diameter" : {
        "kilometers" : {
          "estimated_diameter_min" : 0.0253603344,
          "estimated_diameter_max" : 0.0567074318
        },
        "meters" : {
          "estimated_diameter_min" : 25.3603344453,
          "estimated_diameter_max" : 56.7074317518
        },
        "miles" : {
          "estimated_diameter_min" : 0.0157581764,
          "estimated_diameter_max" : 0.0352363536
        },
        "feet" : {
          "estimated_diameter_min" : 83.2031996615,
          "estimated_diameter_max" : 186.0480103886
        }
      },
      "is_potentially_hazardous_asteroid" : false,
      "close_approach_data" : [ {
        "close_approach_date" : "2004-03-22",
        "epoch_date_close_approach" : 1079942400000,
        "relative_velocity" : {
          "kilometers_per_second" : "10.9452561048",
          "kilometers_per_hour" : "39402.9219771634",
          "miles_per_hour" : "24483.4433807546"
        },
        "miss_distance" : {
          "astronomical" : "0.0863636853",
          "lunar" : "33.5954742432",
          "kilometers" : "12919824",
          "miles" : "8028006.5"
        },
        "orbiting_body" : "Earth"
      } ],
      "orbital_data" : {
        "orbit_id" : "9",
        "orbit_determination_date" : "2017-04-05 06:18:17",
        "orbit_uncertainty" : "7",
        "minimum_orbit_intersection" : ".0136311",
        "jupiter_tisserand_invariant" : "5.546",
        "epoch_osculation" : "2458000.5",
        "eccentricity" : ".2630817985711505",
        "semi_major_axis" : "1.11541963982189",
        "inclination" : "9.64558339129351",
        "ascending_node_longitude" : "181.4211828009646",
        "orbital_period" : "430.2846541549164",
        "perihelion_distance" : ".8219730348159623",
        "perihelion_argument" : "274.1361423475196",
        "aphelion_distance" : "1.408866244827818",
        "perihelion_time" : "2458196.576122872679",
        "mean_anomaly" : "195.9518436166433",
        "mean_motion" : ".8366554477919826",
        "equinox" : "J2000"
      }
    } ]
  }
}